{
  "norad_id": 55796,
  "name": "ONEWEB-0530",
  "history": [
    {
      "epoch": "2026-03-28T18:55:05.578464Z",
      "apogee_km": 1182.6639604734255,
      "perigee_km": 1180.8860203715194,
      "latitude_deg": 2.1908058653517396e-06,
      "longitude_deg": -179.44642293674514,
      "height_km": 1184.6995728927425,
      "semi_major_axis_km": 7559.911990422473,
      "eccentricity": 0.00011759,
      "inclination_deg": 87.9136,
      "raan_deg": 290.5305,
      "arg_perigee_deg": 91.5079,
      "mean_anomaly_deg": 268.6189,
      "mean_motion_rev_day": 13.20771389
    },
    {
      "epoch": "2026-03-29T02:11:27.112992Z",
      "apogee_km": 1182.6649107234061,
      "perigee_km": 1180.8837956086008,
      "latitude_deg": -1.6517526163931274e-05,
      "longitude_deg": 71.1045720889635,
      "height_km": 1184.7105082120083,
      "semi_major_axis_km": 7559.911353166003,
      "eccentricity": 0.0001178,
      "inclination_deg": 87.9136,
      "raan_deg": 290.4699,
      "arg_perigee_deg": 92.25,
      "mean_anomaly_deg": 267.8768,
      "mean_motion_rev_day": 13.20771556
    },
    {
      "epoch": "2026-03-30T01:49:37.162848Z",
      "apogee_km": 1182.662634764457,
      "perigee_km": 1180.8875674031224,
      "latitude_deg": 4.0826604250527596e-05,
      "longitude_deg": 75.39509915749453,
      "height_km": 1184.7270077032194,
      "semi_major_axis_km": 7559.91210108379,
      "eccentricity": 0.0001174,
      "inclination_deg": 87.9135,
      "raan_deg": 290.273,
      "arg_perigee_deg": 93.2756,
      "mean_anomaly_deg": 266.8512,
      "mean_motion_rev_day": 13.2077136
    }
  ]
}